[
    {
        "Altitude(m)": 604983.0530431132,
        "Argument of Periapsis(deg)": 0.0,
        "Eccentricity": 0.0,
        "Inclination(deg)": 60.0,
        "Latitude(deg)": -0.09270962229742133,
        "Longitude(deg)": -34.91608349113147,
        "Mean Anomaly(deg)": -180.0,
        "RAAN(deg)": 245.0,
        "Satellite Name": "Test1 1089",
        "Satellite Number": 1089,
        "Semi-Major Axis(m)": 6980739.136638005,
        "Time(s)": 0
    },
    {
        "Altitude(m)": 605055.3329316574,
        "Argument of Periapsis(deg)": 0.00010418945913296404,
        "Eccentricity": 0.0,
        "Inclination(deg)": 60.0,
        "Latitude(deg)": -0.6331191796460426,
        "Longitude(deg)": -34.64795794740312,
        "Mean Anomaly(deg)": -179.37989385453815,
        "RAAN(deg)": 244.99957995086027,
        "Satellite Name": "Test1 1089",
        "Satellite Number": 1089,
        "Semi-Major Axis(m)": 6980739.136638005,
        "Time(s)": 10
    }
]